NORAD_CAT_ID,OBJECT_NAME,OBJECT_TYPE,EPOCH,MEAN_MOTION,ECCENTRICITY,INCLINATION,RA_OF_ASC_NODE,ARG_OF_PERICENTER,MEAN_ANOMALY,BSTAR,MEAN_MOTION_DOT,MEAN_MOTION_DDOT,TLE_LINE0,TLE_LINE1,TLE_LINE2,SEMIMAJOR_AXIS,PERIOD,APOGEE,PERIGEE,DECAYED
52619.0,STARLINK-3741,PAYLOAD,2024-05-07 22:16:33,15.08828136,0.0001091,53.2188,40.2804,120.4748,239.6352,-0.0002841,-4.805e-05,0.0,0 STARLINK-3741,1 52619U 22052X   24128.92816044 -.00004805  00000-0 -28410-3 0  9992,2 52619  53.2188  40.2804 0001091 120.4748 239.6352 15.08828136109728,6917.917,95.438,540.536,539.027,0.0
52619.0,STARLINK-3741,PAYLOAD,2024-05-08 10:59:37,15.08846729,0.0001395,53.2191,37.8992,99.3826,260.7324,8.0004e-05,9.86e-06,0.0,0 STARLINK-3741,1 52619U 22052X   24129.45807827  .00000986  00000-0  80004-4 0  9992,2 52619  53.2191  37.8992 0001395  99.3826 260.7324 15.08846729109801,6917.86,95.437,540.69,538.76,0.0
52619.0,STARLINK-3741,PAYLOAD,2024-05-08 22:07:19,15.08858537,0.0001195,53.2178,35.8176,103.3934,256.7191,0.00047964,7.358e-05,0.0,0 STARLINK-3741,1 52619U 22052X   24129.92175245  .00007358  00000-0  47964-3 0  9993,2 52619  53.2178  35.8176 0001195 103.3934 256.7191 15.08858537109876,6917.824,95.436,540.515,538.862,0.0
52619.0,STARLINK-3741,PAYLOAD,2024-05-09 01:18:05,15.08864837,0.000113,53.2178,35.2227,107.6691,252.4424,0.0010348,0.0001623,0.0,0 STARLINK-3741,1 52619U 22052X   24130.05423393  .00016230  00000-0  10348-2 0  9993,2 52619  53.2178  35.2227 0001130 107.6691 252.4424 15.08864837110271,6917.804,95.436,540.451,538.888,0.0
52619.0,STARLINK-3741,PAYLOAD,2024-05-09 10:50:24,15.08852438,0.0001255,53.2181,33.4389,93.3531,266.7605,0.00035232,5.326e-05,0.0,0 STARLINK-3741,1 52619U 22052X   24130.45167484  .00005326  00000-0  35232-3 0  9997,2 52619  53.2181  33.4389 0001255  93.3531 266.7605 15.08852438110336,6917.842,95.437,540.576,538.839,0.0
52619.0,STARLINK-3741,PAYLOAD,2024-05-09 21:58:06,15.08843665,0.0001468,53.2173,31.3578,97.3067,262.8092,0.00021515,3.138e-05,0.0,0 STARLINK-3741,1 52619U 22052X   24130.91535638  .00003138  00000-0  21515-3 0  9996,2 52619  53.2173  31.3578 0001468  97.3067 262.8092 15.08843665110023,6917.869,95.437,540.75,538.719,0.0
52619.0,STARLINK-3741,PAYLOAD,2024-05-10 10:41:12,15.08838377,0.0001715,53.2173,28.9785,83.2858,276.8329,0.00022189,3.245e-05,0.0,0 STARLINK-3741,1 52619U 22052X   24131.44528180  .00003245  00000-0  22189-3 0  9996,2 52619  53.2173  28.9785 0001715  83.2858 276.8329 15.08838377110484,6917.885,95.438,540.937,538.564,0.0
52619.0,STARLINK-3741,PAYLOAD,2024-05-10 21:48:54,15.08843005,0.0001015,53.2185,26.8975,77.4725,282.6381,0.00056883,8.777e-05,0.0,0 STARLINK-3741,1 52619U 22052X   24131.90896191  .00008777  00000-0  56883-3 0  9990,2 52619  53.2185  26.8975 0001015  77.4725 282.6381 15.08843005110179,6917.871,95.437,540.438,539.034,0.0
52619.0,STARLINK-3741,PAYLOAD,2024-05-11 02:35:03,15.08869717,0.0001789,53.2179,26.0027,132.8588,227.2554,0.0015545,0.00024559,0.0,0 STARLINK-3741,1 52619U 22052X   24132.10767460  .00024559  00000-0  15545-2 0  9994,2 52619  53.2179  26.0027 0001789 132.8588 227.2554 15.08869717110583,6917.79,95.436,540.892,538.417,0.0
52619.0,STARLINK-3741,PAYLOAD,2024-05-11 10:31:56,15.08956417,4.25e-05,53.2191,24.5221,164.898,195.2025,0.0042514,0.00068246,0.0,0 STARLINK-3741,1 52619U 22052X   24132.43884876  .00068246  00000-0  42514-2 0  9998,2 52619  53.2191  24.5221 0000425 164.8980 195.2025 15.08956417110630,6917.525,95.43,539.684,539.096,0.0
52619.0,STARLINK-3741,PAYLOAD,2024-05-11 20:04:10,15.09067858,0.0001487,53.2184,22.7347,20.9136,339.1917,0.0047499,0.00076606,0.0,0 STARLINK-3741,1 52619U 22052X   24132.83623353  .00076606  00000-0  47499-2 0  9999,2 52619  53.2184  22.7347 0001487  20.9136 339.1917 15.09067858110693,6917.184,95.423,540.078,538.02,0.0
52619.0,STARLINK-3741,PAYLOAD,2024-05-11 23:14:54,15.09114707,0.0001113,53.2179,22.1386,78.1956,281.9161,0.0043487,0.00070137,0.0,0 STARLINK-3741,1 52619U 22052X   24132.96868837  .00070137  00000-0  43487-2 0  9997,2 52619  53.2179  22.1386 0001113  78.1956 281.9161 15.09114707110337,6917.041,95.42,539.676,538.136,0.0
52619.0,STARLINK-3741,PAYLOAD,2024-05-12 07:11:50,15.0883291,8.48e-05,53.2183,20.6523,93.1434,266.9655,-0.00039836,-6.621e-05,0.0,0 STARLINK-3741,1 52619U 22052X   24133.29989328 -.00006621  00000-0 -39836-3 0  9996,2 52619  53.2183  20.6523 0000848  93.1434 266.9655 15.08832910110760,6917.902,95.438,540.354,539.18,0.0
52619.0,STARLINK-3741,PAYLOAD,2024-05-12 19:55:00,15.08711246,0.000106,53.2184,18.2729,96.2937,263.8176,0.0023477,0.00037141,0.0,0 STARLINK-3741,1 52619U 22052X   24133.82986131  .00037141  00000-0  23477-2 0  9996,2 52619  53.2184  18.2729 0001060  96.2937 263.8176 15.08711246110842,6918.274,95.446,540.872,539.406,0.0
52619.0,STARLINK-3741,PAYLOAD,2024-05-12 23:05:47,15.08722762,0.0001154,53.2185,17.6783,100.841,259.2712,0.0027117,0.00042993,0.0,0 STARLINK-3741,1 52619U 22052X   24133.96235164  .00042993  00000-0  27117-2 0  9990,2 52619  53.2185  17.6783 0001154 100.8410 259.2712 15.08722762110488,6918.239,95.445,540.902,539.305,0.0
52619.0,STARLINK-3741,PAYLOAD,2024-05-13 08:38:07,15.08791968,0.0001328,53.2189,15.8974,112.3999,247.7134,0.0035591,0.00056736,0.0,0 STARLINK-3741,1 52619U 22052X   24134.35980887  .00056736  00000-0  35591-2 0  9998,2 52619  53.2189  15.8974 0001328 112.3999 247.7134 15.08791968110920,6918.027,95.441,540.811,538.973,0.0
52619.0,STARLINK-3741,PAYLOAD,2024-05-13 16:35:03,15.08841072,0.0001282,53.2185,14.4075,107.3817,252.7315,0.0035549,0.00056745,0.0,0 STARLINK-3741,1 52619U 22052X   24134.69101185  .00056745  00000-0  35549-2 0  9994,2 52619  53.2185  14.4075 0001282 107.3817 252.7315 15.08841072110597,6917.877,95.437,540.629,538.855,0.0
52619.0,STARLINK-3741,PAYLOAD,2024-05-14 02:07:22,15.08829143,0.0001105,53.2185,12.6229,98.7748,261.337,0.0028244,0.00044936,0.0,0 STARLINK-3741,1 52619U 22052X   24135.08845876  .00044936  00000-0  28244-2 0  9993,2 52619  53.2185  12.6229 0001105  98.7748 261.3370 15.08829143111030,6917.914,95.438,540.543,539.014,0.0
52619.0,STARLINK-3741,PAYLOAD,2024-05-14 08:28:55,15.08836851,3.28e-05,53.2177,11.4302,27.8512,332.2498,0.0012767,0.00020087,0.0,0 STARLINK-3741,1 52619U 22052X   24135.35341797  .00020087  00000-0  12767-2 0  9990,2 52619  53.2177  11.4302 0000328  27.8512 332.2498 15.08836851111075,6917.89,95.438,539.982,539.528,0.0
52619.0,STARLINK-3741,PAYLOAD,2024-05-14 22:47:23,15.08855094,8.55e-05,53.2174,8.7562,75.3782,284.7305,0.0014239,0.00022455,0.0,0 STARLINK-3741,1 52619U 22052X   24135.94957992  .00022455  00000-0  14239-2 0  9992,2 52619  53.2174   8.7562 0000855  75.3782 284.7305 15.08855094110786,6917.834,95.437,540.291,539.108,0.0
52619.0,STARLINK-3741,PAYLOAD,2024-05-15 08:19:43,15.08855318,0.00028,53.218,6.9722,72.297,287.8328,0.0010224,0.00016028,0.0,0 STARLINK-3741,1 52619U 22052X   24136.34703148  .00016028  00000-0  10224-2 0  9998,2 52619  53.2180   6.9722 0002800  72.2970 287.8328 15.08855318111226,6917.834,95.437,541.636,537.762,0.0
52619.0,STARLINK-3741,PAYLOAD,2024-05-15 21:02:49,15.08801615,0.0001294,53.2178,4.593,63.7747,296.3378,0.0011188,0.00017544,0.0,0 STARLINK-3741,1 52619U 22052X   24136.87696140  .00017544  00000-0  11188-2 0  9993,2 52619  53.2178   4.5930 0001294  63.7747 296.3378 15.08801615111301,6917.998,95.44,540.758,538.968,0.0
52619.0,STARLINK-3741,PAYLOAD,2024-05-15 22:38:12,15.08803594,0.000128,53.2177,4.2953,60.1501,299.9618,0.0016089,0.00025385,0.0,0 STARLINK-3741,1 52619U 22052X   24136.94320310  .00025385  00000-0  16089-2 0  9991,2 52619  53.2177   4.2953 0001280  60.1501 299.9618 15.08803594110938,6917.992,95.44,540.742,538.971,0.0
52619.0,STARLINK-3741,PAYLOAD,2024-05-16 08:10:32,15.08829729,0.0001051,53.2173,2.5133,75.9189,284.192,0.0022187,0.00035189,0.0,0 STARLINK-3741,1 52619U 22052X   24137.34064867  .00035189  00000-0  22187-2 0  9997,2 52619  53.2173   2.5133 0001051  75.9189 284.1920 15.08829729111376,6917.912,95.438,540.504,539.05,0.0
52619.0,STARLINK-3741,PAYLOAD,2024-05-16 14:32:04,15.08856131,0.000113,53.2176,1.3237,77.2178,282.894,0.0028094,0.00044727,0.0,0 STARLINK-3741,1 52619U 22052X   24137.60560863  .00044727  00000-0  28094-2 0  9994,2 52619  53.2176   1.3237 0001130  77.2178 282.8940 15.08856131111039,6917.831,95.437,540.478,538.914,0.0
52619.0,STARLINK-3741,PAYLOAD,2024-05-17 08:01:21,15.08815558,0.0007403,53.2159,358.0526,81.554,278.6291,0.00056593,8.727e-05,0.0,0 STARLINK-3741,1 52619U 22052X   24138.33427103  .00008727  00000-0  56593-3 0  9990,2 52619  53.2159 358.0526 0007403  81.5540 278.6291 15.08815558111527,6917.955,95.439,544.941,534.699,0.0
52619.0,STARLINK-3741,PAYLOAD,2024-05-17 20:00:01,15.08857996,0.000141,53.2168,355.8134,85.3135,107.2861,-0.0040826,-0.00064711,0.0,0 STARLINK-3741,1 52619U 22052X   24138.83335648 -.00064711  00000-0 -40826-2 0  9995,2 52619  53.2168 355.8134 0001410  85.3135 107.2861 15.08857996111590,6917.825,95.436,540.666,538.715,0.0
52619.0,STARLINK-3741,PAYLOAD,2024-05-17 22:00:00,15.08838816,0.0001426,53.2168,355.4397,81.0615,204.3777,-0.0022968,-0.00036655,0.0,0 STARLINK-3741,1 52619U 22052X   24138.91667824 -.00036655  00000-0 -22968-2 0  9991,2 52619  53.2168 355.4397 0001426  81.0615 204.3777 15.08838816  5799,6917.884,95.438,540.735,538.763,0.0
52619.0,STARLINK-3741,PAYLOAD,2024-05-18 00:00:00,15.08808105,0.0001414,53.217,355.0659,77.9355,300.4092,0.0012861,0.00020222,0.0,0 STARLINK-3741,1 52619U 22052X   24139.00001157  .00020222  00000-0  12861-2 0  9995,2 52619  53.2170 355.0659 0001414  77.9355 300.4092 15.08808105111627,6917.978,95.44,540.821,538.865,0.0
52619.0,STARLINK-3741,PAYLOAD,2024-05-18 07:52:07,15.08841473,0.0001239,53.2153,353.592,91.5138,268.5996,0.001418,0.00022352,0.0,0 STARLINK-3741,1 52619U 22052X   24139.32786122  .00022352  00000-0  14180-2 0  9994,2 52619  53.2153 353.5920 0001239  91.5138 268.5996 15.08841473111675,6917.876,95.437,540.598,538.884,0.0
